[{"OBJECT_NAME":"BB4","OBJECT_ID":"2023-133B","EPOCH":"2026-03-09T21:37:27.149088","MEAN_MOTION":14.03089986,"ECCENTRICITY":0.00081277,"INCLINATION":80.9964,"RA_OF_ASC_NODE":101.1751,"ARG_OF_PERICENTER":265.8023,"MEAN_ANOMALY":94.2214,"EPHEMERIS_TYPE":0,"CLASSIFICATION_TYPE":"U","NORAD_CAT_ID":57757,"ELEMENT_SET_NO":999,"REV_AT_EPOCH":12736,"BSTAR":0.00015013184,"MEAN_MOTION_DOT":2.45e-6,"MEAN_MOTION_DDOT":0},{"OBJECT_NAME":"FENGYUN 1C DEB","OBJECT_ID":"1999-025AHX","EPOCH":"2026-03-08T15:21:34.087104","MEAN_MOTION":14.08288898,"ECCENTRICITY":0.00993111,"INCLINATION":98.4647,"RA_OF_ASC_NODE":299.1898,"ARG_OF_PERICENTER":179.7539,"MEAN_ANOMALY":243.3627,"EPHEMERIS_TYPE":0,"CLASSIFICATION_TYPE":"U","NORAD_CAT_ID":30509,"ELEMENT_SET_NO":999,"REV_AT_EPOCH":96931,"BSTAR":0.001882238,"MEAN_MOTION_DOT":3.327e-5,"MEAN_MOTION_DDOT":0}]
